{
  "type": "FeatureCollection",
  "features": [
    {
      "type": "Feature",
      "properties": {
        "norad_id": 36744,
        "name": "COMS 1",
        "group": "weather",
        "lat": 4.367933575594387,
        "lon": 167.53819987820864,
        "alt_km": 35786.524436582,
        "timestamp": "2025-12-20T20:38:44.088199+00:00",
        "meta_object_name": "COMS 1",
        "meta_object_id": "2010-032A",
        "meta_epoch": "2025-12-19T21:07:51.684384",
        "meta_mean_motion": 1.00272527,
        "meta_eccentricity": 6.76e-05,
        "meta_inclination": 4.3565,
        "meta_ra_of_asc_node": 77.9191,
        "meta_arg_of_pericenter": 201.7497,
        "meta_mean_anomaly": 254.194,
        "meta_ephemeris_type": 0,
        "meta_classification_type": "U",
        "meta_norad_cat_id": 36744,
        "meta_element_set_no": 999,
        "meta_rev_at_epoch": 4929,
        "meta_bstar": 0,
        "meta_mean_motion_dot": -3.23e-06,
        "meta_mean_motion_ddot": 0,
        "tle_line1": "1 36744U 10032A   25353.88045931 -.00000323  00000+0  00000+0 0  9993",
        "tle_line2": "2 36744   4.3565  77.9191 0000676 201.7497 254.1940  1.00272527 49297"
      },
      "geometry": {
        "type": "Point",
        "coordinates": [
          167.53819987820864,
          4.367933575594387
        ]
      }
    },
    {
      "type": "Feature",
      "properties": {
        "norad_id": 37214,
        "name": "FENGYUN 3B",
        "group": "weather",
        "lat": -28.274065420049187,
        "lon": 39.77883674362562,
        "alt_km": 833.1237361336498,
        "timestamp": "2025-12-20T20:38:44.088212+00:00",
        "meta_object_name": "FENGYUN 3B",
        "meta_object_id": "2010-059A",
        "meta_epoch": "2025-12-20T14:42:45.403200",
        "meta_mean_motion": 14.14792695,
        "meta_eccentricity": 0.00217071,
        "meta_inclination": 98.99,
        "meta_ra_of_asc_node": 34.6455,
        "meta_arg_of_pericenter": 335.3857,
        "meta_mean_anomaly": 177.6899,
        "meta_ephemeris_type": 0,
        "meta_classification_type": "U",
        "meta_norad_cat_id": 37214,
        "meta_element_set_no": 999,
        "meta_rev_at_epoch": 78217,
        "meta_bstar": 0.00010990663,
        "meta_mean_motion_dot": 1.67e-06,
        "meta_mean_motion_ddot": 0,
        "tle_line1": "1 37214U 10059A   25354.61302550  .00000167  00000+0  10991-3 0  9999",
        "tle_line2": "2 37214  98.9900  34.6455 0021707 335.3857 177.6899 14.14792695782172"
      },
      "geometry": {
        "type": "Point",
        "coordinates": [
          39.77883674362562,
          -28.274065420049187
        ]
      }
    },
    {
      "type": "Feature",
      "properties": {
        "norad_id": 37849,
        "name": "SUOMI NPP",
        "group": "weather",
        "lat": -49.258319647669815,
        "lon": -57.53831798519218,
        "alt_km": 835.3537161106551,
        "timestamp": "2025-12-20T20:38:44.088225+00:00",
        "meta_object_name": "SUOMI NPP",
        "meta_object_id": "2011-061A",
        "meta_epoch": "2025-12-17T23:31:21.474624",
        "meta_mean_motion": 14.19515682,
        "meta_eccentricity": 0.00023932,
        "meta_inclination": 98.7779,
        "meta_ra_of_asc_node": 289.2746,
        "meta_arg_of_pericenter": 111.1248,
        "meta_mean_anomaly": 249.0184,
        "meta_ephemeris_type": 0,
        "meta_classification_type": "U",
        "meta_norad_cat_id": 37849,
        "meta_element_set_no": 999,
        "meta_rev_at_epoch": 73273,
        "meta_bstar": 4.8615036e-05,
        "meta_mean_motion_dot": 5.8e-07,
        "meta_mean_motion_ddot": 0,
        "tle_line1": "1 37849U 11061A   25351.98010966  .00000058  00000+0  48615-4 0  9995",
        "tle_line2": "2 37849  98.7779 289.2746 0002393 111.1248 249.0184 14.19515682732735"
      },
      "geometry": {
        "type": "Point",
        "coordinates": [
          -57.53831798519218,
          -49.258319647669815
        ]
      }
    },
    {
      "type": "Feature",
      "properties": {
        "norad_id": 38552,
        "name": "METEOSAT-10 (MSG-3)",
        "group": "weather",
        "lat": -1.577855636575709,
        "lon": 39.72625453007569,
        "alt_km": 35783.80746765637,
        "timestamp": "2025-12-20T20:38:44.088237+00:00",
        "meta_object_name": "METEOSAT-10 (MSG-3)",
        "meta_object_id": "2012-035B",
        "meta_epoch": "2025-12-19T08:07:49.924128",
        "meta_mean_motion": 1.00276524,
        "meta_eccentricity": 6.93e-05,
        "meta_inclination": 4.2433,
        "meta_ra_of_asc_node": 61.706,
        "meta_arg_of_pericenter": 270.066,
        "meta_mean_anomaly": 238.6463,
        "meta_ephemeris_type": 0,
        "meta_classification_type": "U",
        "meta_norad_cat_id": 38552,
        "meta_element_set_no": 999,
        "meta_rev_at_epoch": 4905,
        "meta_bstar": 0,
        "meta_mean_motion_dot": 1.7e-07,
        "meta_mean_motion_ddot": 0,
        "tle_line1": "1 38552U 12035B   25353.33877227  .00000017  00000+0  00000+0 0  9997",
        "tle_line2": "2 38552   4.2433  61.7060 0000693 270.0660 238.6463  1.00276524 49057"
      },
      "geometry": {
        "type": "Point",
        "coordinates": [
          39.72625453007569,
          -1.577855636575709
        ]
      }
    },
    {
      "type": "Feature",
      "properties": {
        "norad_id": 38771,
        "name": "METOP-B",
        "group": "weather",
        "lat": -37.14568548704375,
        "lon": -141.96358626101846,
        "alt_km": 826.9457759755896,
        "timestamp": "2025-12-20T20:38:44.088248+00:00",
        "meta_object_name": "METOP-B",
        "meta_object_id": "2012-049A",
        "meta_epoch": "2025-12-20T09:29:20.413824",
        "meta_mean_motion": 14.21411074,
        "meta_eccentricity": 0.00031689,
        "meta_inclination": 98.6788,
        "meta_ra_of_asc_node": 44.224,
        "meta_arg_of_pericenter": 127.8979,
        "meta_mean_anomaly": 232.2486,
        "meta_ephemeris_type": 0,
        "meta_classification_type": "U",
        "meta_norad_cat_id": 38771,
        "meta_element_set_no": 999,
        "meta_rev_at_epoch": 68786,
        "meta_bstar": 6.55584e-05,
        "meta_mean_motion_dot": 1e-06,
        "meta_mean_motion_ddot": 0,
        "tle_line1": "1 38771U 12049A   25354.39537516  .00000100  00000+0  65558-4 0  9993",
        "tle_line2": "2 38771  98.6788  44.2240 0003168 127.8979 232.2486 14.21411074687868"
      },
      "geometry": {
        "type": "Point",
        "coordinates": [
          -141.96358626101846,
          -37.14568548704375
        ]
      }
    },
    {
      "type": "Feature",
      "properties": {
        "norad_id": 39216,
        "name": "INSAT-3D",
        "group": "weather",
        "lat": 1.4619723958104744,
        "lon": 168.8234139085933,
        "alt_km": 35781.69679603295,
        "timestamp": "2025-12-20T20:38:44.088261+00:00",
        "meta_object_name": "INSAT-3D",
        "meta_object_id": "2013-038B",
        "meta_epoch": "2025-12-20T12:07:59.913120",
        "meta_mean_motion": 1.00277127,
        "meta_eccentricity": 0.00017905,
        "meta_inclination": 1.4638,
        "meta_ra_of_asc_node": 84.911,
        "meta_arg_of_pericenter": 152.3239,
        "meta_mean_anomaly": 163.5758,
        "meta_ephemeris_type": 0,
        "meta_classification_type": "U",
        "meta_norad_cat_id": 39216,
        "meta_element_set_no": 999,
        "meta_rev_at_epoch": 4528,
        "meta_bstar": 0,
        "meta_mean_motion_dot": -3.16e-06,
        "meta_mean_motion_ddot": 0,
        "tle_line1": "1 39216U 13038B   25354.50555455 -.00000316  00000+0  00000+0 0  9998",
        "tle_line2": "2 39216   1.4638  84.9110 0001790 152.3239 163.5758  1.00277127 45281"
      },
      "geometry": {
        "type": "Point",
        "coordinates": [
          168.8234139085933,
          1.4619723958104744
        ]
      }
    },
    {
      "type": "Feature",
      "properties": {
        "norad_id": 39260,
        "name": "FENGYUN 3C",
        "group": "weather",
        "lat": -61.13680705381535,
        "lon": -12.158269843399033,
        "alt_km": 853.2108852819838,
        "timestamp": "2025-12-20T20:38:44.088272+00:00",
        "meta_object_name": "FENGYUN 3C",
        "meta_object_id": "2013-052A",
        "meta_epoch": "2025-12-20T14:09:18.868608",
        "meta_mean_motion": 14.15698518,
        "meta_eccentricity": 0.00147197,
        "meta_inclination": 98.4771,
        "meta_ra_of_asc_node": 331.8862,
        "meta_arg_of_pericenter": 173.1659,
        "meta_mean_anomaly": 186.9719,
        "meta_ephemeris_type": 0,
        "meta_classification_type": "U",
        "meta_norad_cat_id": 39260,
        "meta_element_set_no": 999,
        "meta_rev_at_epoch": 63329,
        "meta_bstar": 4.2099548e-05,
        "meta_mean_motion_dot": 4.1e-07,
        "meta_mean_motion_ddot": 0,
        "tle_line1": "1 39260U 13052A   25354.58980172  .00000041  00000+0  42100-4 0  9995",
        "tle_line2": "2 39260  98.4771 331.8862 0014719 173.1659 186.9719 14.15698518633295"
      },
      "geometry": {
        "type": "Point",
        "coordinates": [
          -12.158269843399033,
          -61.13680705381535
        ]
      }
    }
  ]
}